TRANSIT 16 [?]          
1 02807U 67048A   22267.39043078  .00000088  00000+0  12196-3 0  9992
2 02807  89.6605  33.0567 0018423 274.4187 144.2160 13.50326377724129
TRANSIT 17 [?]          
1 02965U 67092A   22267.59168653  .00000115  00000+0  15431-3 0  9991
2 02965  89.2321 115.7990 0049256  49.1636   4.1156 13.53038476712047
TRANSIT 18 [?]          
1 03133U 68012A   22267.56945233  .00000098  00000+0  13520-3 0  9993
2 03133  90.0009 271.6338 0074140 335.6799 136.6026 13.51164273410471
NNSS 19 [?]             
1 04507U 70067A   22267.44740204  .00000108  00000+0  13629-3 0  9992
2 04507  89.9245 238.5707 0174516  97.3327 264.7694 13.50840806563526
NNSS O-20 [?]           
1 06909U 73081A   22267.54283881  .00000155  00000+0  14954-3 0  9997
2 06909  89.8133 275.5683 0156378   1.0219 359.1233 13.70697556642587
TRANSAT [?]             
1 10457U 77106A   22267.57198294  .00000080  00000+0  11257-3 0  9998
2 10457  89.6745 119.3331 0024718 345.7078  77.2495 13.48688364209023
NOVA I [?]              
1 12458U 81044A   22267.52423242  .00000108  00000+0  23557-3 0  9993
2 12458  89.8800 106.5953 0016175 102.9668 316.3633 13.23073206996440
NOVA 3 [?]              
1 15362U 84110A   22267.49669333  .00000071  00000+0  14866-3 0  9998
2 15362  90.0969  67.8960 0030945 332.2237  87.9485 13.22840243831609
OSCAR 30 [?]            
1 15935U 85066A   22267.50243396  .00000073  00000+0  11406-3 0  9993
2 15935  90.1732  79.6222 0169501 158.5025 265.1654 13.35765498807626
OSCAR 24 [?]            
1 15936U 85066B   22267.51326840  .00000076  00000+0  11966-3 0  9995
2 15936  90.1705  71.5594 0169878 164.2135 260.0220 13.35625677809543
POLAR BEAR [?]          
1 17070U 86088A   22267.48699118  .00000096  00000+0  87683-4 0  9990
2 17070  89.5668 233.0661 0041169  66.0845  57.4336 13.74879951798286
OSCAR 27 [?]            
1 18361U 87080A   22267.41673442  .00000066  00000+0  95984-4 0  9992
2 18361  90.3364  37.5073 0103819 351.1890   8.7432 13.44573679717615
OSCAR 29 [?]            
1 18362U 87080B   22267.41962987  .00000062  00000+0  89447-4 0  9991
2 18362  90.3376  37.8442 0106212  11.6946  50.3345 13.44162655717199
OSCAR 23 [?]            
1 19070U 88033A   22267.50293278  .00000093  00000+0  17338-3 0  9990
2 19070  90.3341 339.9536 0189253 207.7873 163.9856 13.27530495666598
OSCAR 32 [?]            
1 19071U 88033B   22267.48242134  .00000077  00000+0  13950-3 0  9991
2 19071  90.3342 340.0403 0187973 195.6711 175.6472 13.27710269666693
NOVA 11 [?]             
1 19223U 88052A   22267.56577817  .00000006  00000+0 -65339-5 0  9992
2 19223  89.9701  80.6121 0031056  15.7396  54.4039 13.22750927654117
OSCAR 25 [?]            
1 19419U 88074A   22267.55401848  .00000055  00000+0  80396-4 0  9994
2 19419  90.0117  17.9408 0096023 359.5373  11.9425 13.42303369668734
OSCAR 31 [?]            
1 19420U 88074B   22267.35334569  .00000053  00000+0  76072-4 0  9993
2 19420  90.0126  18.1267 0094047 354.2584  63.4468 13.42313956668813
